[Satellite]
VERSION=1.1
NAME=SOMP
NICKNAME=SOMP
TLE1=1 39134U 13015E   22342.04528251  .00032343  00000+0  93827-3 0  9996
TLE2=2 39134  64.8583 209.8923 0029894 254.6399 105.1432 15.34939388533436
STATUS=0
